[{"OBJECT_NAME":"STARLINK-4191","OBJECT_ID":"2022-062AG","EPOCH":"2026-03-09T06:53:46.614048","MEAN_MOTION":15.08839224,"ECCENTRICITY":0.0001505,"INCLINATION":53.2185,"RA_OF_ASC_NODE":25.9245,"ARG_OF_PERICENTER":107.4348,"MEAN_ANOMALY":252.6809,"EPHEMERIS_TYPE":0,"CLASSIFICATION_TYPE":"U","NORAD_CAT_ID":52860,"ELEMENT_SET_NO":999,"REV_AT_EPOCH":20586,"BSTAR":-4.2247414e-5,"MEAN_MOTION_DOT":-9.6e-6,"MEAN_MOTION_DDOT":0},{"OBJECT_NAME":"JILIN-01 KUANFU 02B 6","OBJECT_ID":"2024-169F","EPOCH":"2026-03-09T21:43:38.712288","MEAN_MOTION":15.09238946,"ECCENTRICITY":0.00150747,"INCLINATION":97.5549,"RA_OF_ASC_NODE":159.9459,"ARG_OF_PERICENTER":324.4254,"MEAN_ANOMALY":35.5968,"EPHEMERIS_TYPE":0,"CLASSIFICATION_TYPE":"U","NORAD_CAT_ID":61194,"ELEMENT_SET_NO":999,"REV_AT_EPOCH":8086,"BSTAR":0.00036442477,"MEAN_MOTION_DOT":5.751e-5,"MEAN_MOTION_DDOT":0}]
